FENGYUN 1C DEB          
1 35105U 99025DKH 17345.74017538  .00000173  00000-0  66168-4 0  9996
2 35105  98.9769 169.2754 0123454  80.2278 339.5274 14.39258867524023
